CTC1_L_00024016-03
1 10062U 25679WH  26075.70028935  .00000000  00000+0  00000-0 0  9991
2 10062  90.0000 180.0000 0000000   0.0000   0.0000 15.80155680    19
CTC1_L_00024016-04
1 10063U 25805OW  26075.70028935  .00000000  00000+0  00000-0 0  9993
2 10063  90.0000 180.0000 0000000   0.0000  90.0000 15.80155680    19
CTC1_L_00024017-01
1 10064U 24700XY  26075.70028935  .00000000  00000+0  00000-0 0  9997
2 10064  90.0000 192.0000 0000000   0.0000 192.0000 15.80155680    16
CTC1_L_00024017-02
1 10065U 24511OR  26075.70028935  .00000000  00000+0  00000-0 0  9998
2 10065  90.0000 192.0000 0000000   0.0000 282.0000 15.80155680    17
CTC1_L_00024017-03
1 10066U 26632LV  26075.70028935  .00000000  00000+0  00000-0 0  9995
2 10066  90.0000 192.0000 0000000   0.0000  12.0000 15.80155680    19
CTC1_L_00024017-04
1 10067U 23737IL  26075.70028935  .00000000  00000+0  00000-0 0  9999
2 10067  90.0000 192.0000 0000000   0.0000 102.0000 15.80155680    10
CTC1_L_00024018-01
1 10068U 25284NX  26075.70028935  .00000000  00000+0  00000-0 0  9999
2 10068  90.0000 204.0000 0000000   0.0000 204.0000 15.80155680    18
CTC1_L_00024018-02
1 10069U 25982BG  26075.70028935  .00000000  00000+0  00000-0 0  9995
2 10069  90.0000 204.0000 0000000   0.0000 294.0000 15.80155680    18
CTC1_L_00024018-03
1 10070U 23132IG  26075.70028935  .00000000  00000+0  00000-0 0  9992
2 10070  90.0000 204.0000 0000000   0.0000  24.0000 15.80155680    11
CTC1_L_00024018-04
1 10071U 24322VC  26075.70028935  .00000000  00000+0  00000-0 0  9995
2 10071  90.0000 204.0000 0000000   0.0000 114.0000 15.80155680    12
CTC1_L_00024019-01
1 10072U 23129YO  26075.70028935  .00000000  00000+0  00000-0 0  9990
2 10072  90.0000 216.0000 0000000   0.0000 216.0000 15.80155680    19
CTC1_L_00024019-02
1 10073U 25457IO  26075.70028935  .00000000  00000+0  00000-0 0  9997
2 10073  90.0000 216.0000 0000000   0.0000 306.0000 15.80155680    10
CTC1_L_00024019-03
1 10074U 23700QR  26075.70028935  .00000000  00000+0  00000-0 0  9997
2 10074  90.0000 216.0000 0000000   0.0000  36.0000 15.80155680    11
CTC1_L_00024019-04
1 10075U 25087ZK  26075.70028935  .00000000  00000+0  00000-0 0  9998
2 10075  90.0000 216.0000 0000000   0.0000 126.0000 15.80155680    12
CTC1_L_00024020-01
1 10076U 24318GO  26075.70028935  .00000000  00000+0  00000-0 0  9995
2 10076  90.0000 228.0000 0000000   0.0000 228.0000 15.80155680    19
CTC1_L_00024020-02
1 10077U 24390JB  26075.70028935  .00000000  00000+0  00000-0 0  9996
2 10077  90.0000 228.0000 0000000   0.0000 318.0000 15.80155680    10
CTC1_L_00024020-03
1 10078U 24091UE  26075.70028935  .00000000  00000+0  00000-0 0  9995
2 10078  90.0000 228.0000 0000000   0.0000  48.0000 15.80155680    11
CTC1_L_00024020-04
1 10079U 22734JN  26075.70028935  .00000000  00000+0  00000-0 0  9998
2 10079  90.0000 228.0000 0000000   0.0000 138.0000 15.80155680    12
CTC1_L_00024021-01
1 10080U 23711RZ  26075.70028935  .00000000  00000+0  00000-0 0  9996
2 10080  90.0000 240.0000 0000000   0.0000 240.0000 15.80155680    12
CTC1_L_00024021-02
1 10081U 23312LN  26075.70028935  .00000000  00000+0  00000-0 0  9994
2 10081  90.0000 240.0000 0000000   0.0000 330.0000 15.80155680    13
CTC1_L_00024021-03
1 10082U 24543YD  26075.70028935  .00000000  00000+0  00000-0 0  9992
2 10082  90.0000 240.0000 0000000   0.0000  60.0000 15.80155680    14
CTC1_L_00024021-04
1 10083U 24527EB  26075.70028935  .00000000  00000+0  00000-0 0  9995
2 10083  90.0000 240.0000 0000000   0.0000 150.0000 15.80155680    15
CTC1_L_00024022-01
1 10084U 24849HO  26075.70028935  .00000000  00000+0  00000-0 0  9993
2 10084  90.0000 252.0000 0000000   0.0000 252.0000 15.80155680    12
CTC1_L_00024022-02
1 10085U 24606AC  26075.70028935  .00000000  00000+0  00000-0 0  9995
2 10085  90.0000 252.0000 0000000   0.0000 342.0000 15.80155680    13
CTC1_L_00024022-03
1 10086U 23951OZ  26075.70028935  .00000000  00000+0  00000-0 0  9998
2 10086  90.0000 252.0000 0000000   0.0000  72.0000 15.80155680    14
CTC1_L_00024022-04
1 10087U 24899OW  26075.70028935  .00000000  00000+0  00000-0 0  9991
2 10087  90.0000 252.0000 0000000   0.0000 162.0000 15.80155680    15
CTC1_L_00024023-01
1 10088U 26160ML  26075.70028935  .00000000  00000+0  00000-0 0  9995
2 10088  90.0000 264.0000 0000000   0.0000 264.0000 15.80155680    12
CTC1_L_00024023-02
1 10089U 24939MX  26075.70028935  .00000000  00000+0  00000-0 0  9998
2 10089  90.0000 264.0000 0000000   0.0000 354.0000 15.80155680    13
CTC1_L_00024023-03
1 10090U 26467XQ  26075.70028935  .00000000  00000+0  00000-0 0  9998
2 10090  90.0000 264.0000 0000000   0.0000  84.0000 15.80155680    15
CTC1_L_00024023-04
1 10091U 25321ZU  26075.70028935  .00000000  00000+0  00000-0 0  9997
2 10091  90.0000 264.0000 0000000   0.0000 174.0000 15.80155680    16
CTC1_L_00024024-01
1 10092U 25948X   26075.70028935  .00000000  00000+0  00000-0 0  9993
2 10092  90.0000 276.0000 0000000   0.0000 276.0000 15.80155680    13
CTC1_L_00024024-02
1 10093U 23193BZ  26075.70028935  .00000000  00000+0  00000-0 0  9994
2 10093  90.0000 276.0000 0000000   0.0000   6.0000 15.80155680    15
CTC1_L_00024024-03
1 10094U 22784OV  26075.70028935  .00000000  00000+0  00000-0 0  9990
2 10094  90.0000 276.0000 0000000   0.0000  96.0000 15.80155680    15
CTC1_L_00024024-04
1 10095U 22261VM  26075.70028935  .00000000  00000+0  00000-0 0  9991
2 10095  90.0000 276.0000 0000000   0.0000 186.0000 15.80155680    16
CTC1_L_00024025-01
1 10096U 22893MC  26075.70028935  .00000000  00000+0  00000-0 0  9993
2 10096  90.0000 288.0000 0000000   0.0000 288.0000 15.80155680    13
CTC1_L_00024025-02
1 10097U 25958YV  26075.70028935  .00000000  00000+0  00000-0 0  9999
2 10097  90.0000 288.0000 0000000   0.0000  18.0000 15.80155680    15
CTC1_L_00024025-03
1 10098U 25364CZ  26075.70028935  .00000000  00000+0  00000-0 0  9991
2 10098  90.0000 288.0000 0000000   0.0000 108.0000 15.80155680    16
CTC1_L_00024025-04
1 10099U 25671HA  26075.70028935  .00000000  00000+0  00000-0 0  9993
2 10099  90.0000 288.0000 0000000   0.0000 198.0000 15.80155680    16
CTC1_L_00024026-01
1 10100U 23184GE  26075.70028935  .00000000  00000+0  00000-0 0  9993
2 10100  90.0000 300.0000 0000000   0.0000 300.0000 15.80155680    19
CTC1_L_00024026-02
1 10101U 22792BO  26075.70028935  .00000000  00000+0  00000-0 0  9998
2 10101  90.0000 300.0000 0000000   0.0000  30.0000 15.80155680    10
CTC1_L_00024026-03
1 10102U 22526ZH  26075.70028935  .00000000  00000+0  00000-0 0  9994
2 10102  90.0000 300.0000 0000000   0.0000 120.0000 15.80155680    11
CTC1_L_00024026-04
1 10103U 26402CH  26075.70028935  .00000000  00000+0  00000-0 0  9992
2 10103  90.0000 300.0000 0000000   0.0000 210.0000 15.80155680    12
CTC1_L_00024027-01
1 10104U 23139MG  26075.70028935  .00000000  00000+0  00000-0 0  9997
2 10104  90.0000 312.0000 0000000   0.0000 312.0000 15.80155680    19
CTC1_L_00024027-02
1 10105U 23186BJ  26075.70028935  .00000000  00000+0  00000-0 0  9990
2 10105  90.0000 312.0000 0000000   0.0000  42.0000 15.80155680    10
CTC1_L_00024027-03
1 10106U 26909MZ  26075.70028935  .00000000  00000+0  00000-0 0  9997
2 10106  90.0000 312.0000 0000000   0.0000 132.0000 15.80155680    11
CTC1_L_00024027-04
1 10107U 25324HN  26075.70028935  .00000000  00000+0  00000-0 0  9998
2 10107  90.0000 312.0000 0000000   0.0000 222.0000 15.80155680    12
CTC1_L_00024028-01
1 10108U 25845CX  26075.70028935  .00000000  00000+0  00000-0 0  9997
2 10108  90.0000 324.0000 0000000   0.0000 324.0000 15.80155680    19
CTC1_L_00024028-02
1 10109U 24376CJ  26075.70028935  .00000000  00000+0  00000-0 0  9996
2 10109  90.0000 324.0000 0000000   0.0000  54.0000 15.80155680    10
CTC1_L_00024028-03
1 10110U 22496AE  26075.70028935  .00000000  00000+0  00000-0 0  9999
2 10110  90.0000 324.0000 0000000   0.0000 144.0000 15.80155680    12
CTC1_L_00024028-04
1 10111U 22362YJ  26075.70028935  .00000000  00000+0  00000-0 0  9992
2 10111  90.0000 324.0000 0000000   0.0000 234.0000 15.80155680    13
CTC1_L_00024029-01
1 10112U 25651ON  26075.70028935  .00000000  00000+0  00000-0 0  9997
2 10112  90.0000 336.0000 0000000   0.0000 336.0000 15.80155680    10
CTC1_L_00024029-02
1 10113U 25185B   26075.70028935  .00000000  00000+0  00000-0 0  9990
2 10113  90.0000 336.0000 0000000   0.0000  66.0000 15.80155680    11
CTC1_L_00024029-03
1 10114U 26984RV  26075.70028935  .00000000  00000+0  00000-0 0  9999
2 10114  90.0000 336.0000 0000000   0.0000 156.0000 15.80155680    12
CTC1_L_00024029-04
1 10115U 26506ZK  26075.70028935  .00000000  00000+0  00000-0 0  9990
2 10115  90.0000 336.0000 0000000   0.0000 246.0000 15.80155680    13
CTC1_L_00024030-01
1 10116U 24102UR  26075.70028935  .00000000  00000+0  00000-0 0  9991
2 10116  90.0000 348.0000 0000000   0.0000 348.0000 15.80155680    10
CTC1_L_00024030-02
1 10117U 22316AM  26075.70028935  .00000000  00000+0  00000-0 0  9997
2 10117  90.0000 348.0000 0000000   0.0000  78.0000 15.80155680    11
CTC1_L_00024030-03
1 10118U 25047CR  26075.70028935  .00000000  00000+0  00000-0 0  9992
2 10118  90.0000 348.0000 0000000   0.0000 168.0000 15.80155680    12
CTC1_L_00024030-04
1 10119U 23786JF  26075.70028935  .00000000  00000+0  00000-0 0  9991
2 10119  90.0000 348.0000 0000000   0.0000 258.0000 15.80155680    13
